[
  {
    "OBJECT_NAME": "STARLINK-5537",
    "OBJECT_ID": "23013BF",
    "EPOCH": "2025-11-11T03:52:08.956128",
    "MEAN_MOTION": 15.02535909,
    "ECCENTRICITY": 0.0001507,
    "INCLINATION": 43.0045,
    "RA_OF_ASC_NODE": 237.0308,
    "ARG_OF_PERICENTER": 274.2629,
    "MEAN_ANOMALY": 85.8041,
    "EPHEMERIS_TYPE": 0,
    "CLASSIFICATION_TYPE": "U",
    "NORAD_CAT_ID": 55384,
    "ELEMENT_SET_NO": 999,
    "REV_AT_EPOCH": 15373,
    "BSTAR": 9.0126e-05,
    "MEAN_MOTION_DOT": 1.014e-05,
    "MEAN_MOTION_DDOT": 0.0,
    "TLE_LINE1": "1 55384U 23013BF  25315.16121477  .00001014  00000+0  90126-4 0  9996",
    "TLE_LINE2": "2 55384  43.0045 237.0308 0001507 274.2629  85.8041 15.02535909153735",
    "COMMENT": "Grouped by shell and plane from TLE"
  },
  {
    "OBJECT_NAME": "STARLINK-5556",
    "OBJECT_ID": "23013BG",
    "EPOCH": "2025-11-11T03:31:22.636128",
    "MEAN_MOTION": 15.02529397,
    "ECCENTRICITY": 0.0001312,
    "INCLINATION": 43.005,
    "RA_OF_ASC_NODE": 236.9204,
    "ARG_OF_PERICENTER": 272.6587,
    "MEAN_ANOMALY": 87.4105,
    "EPHEMERIS_TYPE": 0,
    "CLASSIFICATION_TYPE": "U",
    "NORAD_CAT_ID": 55385,
    "ELEMENT_SET_NO": 999,
    "REV_AT_EPOCH": 15373,
    "BSTAR": 0.00015623000000000001,
    "MEAN_MOTION_DOT": 1.907e-05,
    "MEAN_MOTION_DDOT": 0.0,
    "TLE_LINE1": "1 55385U 23013BG  25315.14678977  .00001907  00000+0  15623-3 0  9996",
    "TLE_LINE2": "2 55385  43.0050 236.9204 0001312 272.6587  87.4105 15.02529397153737",
    "COMMENT": "Grouped by shell and plane from TLE"
  },
  {
    "OBJECT_NAME": "STARLINK-5555",
    "OBJECT_ID": "23013BH",
    "EPOCH": "2025-11-11T03:36:09.158400",
    "MEAN_MOTION": 15.02537305,
    "ECCENTRICITY": 8.8e-05,
    "INCLINATION": 43.0036,
    "RA_OF_ASC_NODE": 236.9453,
    "ARG_OF_PERICENTER": 271.7137,
    "MEAN_ANOMALY": 88.3604,
    "EPHEMERIS_TYPE": 0,
    "CLASSIFICATION_TYPE": "U",
    "NORAD_CAT_ID": 55386,
    "ELEMENT_SET_NO": 999,
    "REV_AT_EPOCH": 15373,
    "BSTAR": 0.00019675,
    "MEAN_MOTION_DOT": 2.455e-05,
    "MEAN_MOTION_DDOT": 0.0,
    "TLE_LINE1": "1 55386U 23013BH  25315.15010600  .00002455  00000+0  19675-3 0  9991",
    "TLE_LINE2": "2 55386  43.0036 236.9453 0000880 271.7137  88.3604 15.02537305153730",
    "COMMENT": "Grouped by shell and plane from TLE"
  },
  {
    "OBJECT_NAME": "STARLINK-5705",
    "OBJECT_ID": "23015Z",
    "EPOCH": "2025-11-11T03:17:09.950208",
    "MEAN_MOTION": 15.02536334,
    "ECCENTRICITY": 0.0001286,
    "INCLINATION": 43.0047,
    "RA_OF_ASC_NODE": 237.7651,
    "ARG_OF_PERICENTER": 270.3224,
    "MEAN_ANOMALY": 89.7471,
    "EPHEMERIS_TYPE": 0,
    "CLASSIFICATION_TYPE": "U",
    "NORAD_CAT_ID": 55472,
    "ELEMENT_SET_NO": 999,
    "REV_AT_EPOCH": 15306,
    "BSTAR": 7.188e-05,
    "MEAN_MOTION_DOT": 7.67e-06,
    "MEAN_MOTION_DDOT": 0.0,
    "TLE_LINE1": "1 55472U 23015Z   25315.13692072  .00000767  00000+0  71880-4 0  9997",
    "TLE_LINE2": "2 55472  43.0047 237.7651 0001286 270.3224  89.7471 15.02536334153064",
    "COMMENT": "Grouped by shell and plane from TLE"
  },
  {
    "OBJECT_NAME": "STARLINK-5685",
    "OBJECT_ID": "23015AE",
    "EPOCH": "2025-11-11T03:09:11.156832",
    "MEAN_MOTION": 15.02535128,
    "ECCENTRICITY": 0.0001142,
    "INCLINATION": 43.0044,
    "RA_OF_ASC_NODE": 237.7171,
    "ARG_OF_PERICENTER": 287.5889,
    "MEAN_ANOMALY": 72.4829,
    "EPHEMERIS_TYPE": 0,
    "CLASSIFICATION_TYPE": "U",
    "NORAD_CAT_ID": 55477,
    "ELEMENT_SET_NO": 999,
    "REV_AT_EPOCH": 15306,
    "BSTAR": 1.0934e-05,
    "MEAN_MOTION_DOT": -5.6e-07,
    "MEAN_MOTION_DDOT": 0.0,
    "TLE_LINE1": "1 55477U 23015AE  25315.13137913 -.00000056  00000+0  10934-4 0  9995",
    "TLE_LINE2": "2 55477  43.0044 237.7171 0001142 287.5889  72.4829 15.02535128153067",
    "COMMENT": "Grouped by shell and plane from TLE"
  },
  {
    "OBJECT_NAME": "STARLINK-5691",
    "OBJECT_ID": "23015AF",
    "EPOCH": "2025-11-11T04:43:18.525216",
    "MEAN_MOTION": 15.02528322,
    "ECCENTRICITY": 0.0001232,
    "INCLINATION": 43.0052,
    "RA_OF_ASC_NODE": 237.3479,
    "ARG_OF_PERICENTER": 263.3332,
    "MEAN_ANOMALY": 96.7371,
    "EPHEMERIS_TYPE": 0,
    "CLASSIFICATION_TYPE": "U",
    "NORAD_CAT_ID": 55478,
    "ELEMENT_SET_NO": 999,
    "REV_AT_EPOCH": 15307,
    "BSTAR": 0.00013717,
    "MEAN_MOTION_DOT": 1.649e-05,
    "MEAN_MOTION_DDOT": 0.0,
    "TLE_LINE1": "1 55478U 23015AF  25315.19674219  .00001649  00000+0  13717-3 0  9996",
    "TLE_LINE2": "2 55478  43.0052 237.3479 0001232 263.3332  96.7371 15.02528322153079",
    "COMMENT": "Grouped by shell and plane from TLE"
  },
  {
    "OBJECT_NAME": "STARLINK-5688",
    "OBJECT_ID": "23015AG",
    "EPOCH": "2025-11-11T03:21:57.904128",
    "MEAN_MOTION": 15.02535535,
    "ECCENTRICITY": 0.0001175,
    "INCLINATION": 43.0048,
    "RA_OF_ASC_NODE": 237.7863,
    "ARG_OF_PERICENTER": 273.8166,
    "MEAN_ANOMALY": 86.2541,
    "EPHEMERIS_TYPE": 0,
    "CLASSIFICATION_TYPE": "U",
    "NORAD_CAT_ID": 55479,
    "ELEMENT_SET_NO": 999,
    "REV_AT_EPOCH": 15306,
    "BSTAR": 2.2198000000000003e-05,
    "MEAN_MOTION_DOT": 9.6e-07,
    "MEAN_MOTION_DDOT": 0.0,
    "TLE_LINE1": "1 55479U 23015AG  25315.14025352  .00000096  00000+0  22198-4 0  9999",
    "TLE_LINE2": "2 55479  43.0048 237.7863 0001175 273.8166  86.2541 15.02535535153069",
    "COMMENT": "Grouped by shell and plane from TLE"
  },
  {
    "OBJECT_NAME": "STARLINK-5364",
    "OBJECT_ID": "23015AU",
    "EPOCH": "2025-11-11T03:23:23.638848",
    "MEAN_MOTION": 15.02536415,
    "ECCENTRICITY": 0.0001276,
    "INCLINATION": 43.0041,
    "RA_OF_ASC_NODE": 236.9239,
    "ARG_OF_PERICENTER": 262.0486,
    "MEAN_ANOMALY": 98.0212,
    "EPHEMERIS_TYPE": 0,
    "CLASSIFICATION_TYPE": "U",
    "NORAD_CAT_ID": 55491,
    "ELEMENT_SET_NO": 999,
    "REV_AT_EPOCH": 15307,
    "BSTAR": 2.6454e-05,
    "MEAN_MOTION_DOT": 1.54e-06,
    "MEAN_MOTION_DDOT": 0.0,
    "TLE_LINE1": "1 55491U 23015AU  25315.14124582  .00000154  00000+0  26454-4 0  9992",
    "TLE_LINE2": "2 55491  43.0041 236.9239 0001276 262.0486  98.0212 15.02536415153076",
    "COMMENT": "Grouped by shell and plane from TLE"
  },
  {
    "OBJECT_NAME": "STARLINK-5100",
    "OBJECT_ID": "23015AY",
    "EPOCH": "2025-11-11T03:02:46.964544",
    "MEAN_MOTION": 15.02536016,
    "ECCENTRICITY": 0.0001143,
    "INCLINATION": 43.0043,
    "RA_OF_ASC_NODE": 237.6837,
    "ARG_OF_PERICENTER": 267.661,
    "MEAN_ANOMALY": 92.4102,
    "EPHEMERIS_TYPE": 0,
    "CLASSIFICATION_TYPE": "U",
    "NORAD_CAT_ID": 55495,
    "ELEMENT_SET_NO": 999,
    "REV_AT_EPOCH": 15306,
    "BSTAR": 4.4045e-05,
    "MEAN_MOTION_DOT": 3.91e-06,
    "MEAN_MOTION_DDOT": 0.0,
    "TLE_LINE1": "1 55495U 23015AY  25315.12693246  .00000391  00000+0  44045-4 0  9991",
    "TLE_LINE2": "2 55495  43.0043 237.6837 0001143 267.6610  92.4102 15.02536016153069",
    "COMMENT": "Grouped by shell and plane from TLE"
  },
  {
    "OBJECT_NAME": "STARLINK-30465",
    "OBJECT_ID": "23146A",
    "EPOCH": "2025-11-11T05:29:36.099456",
    "MEAN_MOTION": 15.02530145,
    "ECCENTRICITY": 0.0001069,
    "INCLINATION": 43.0044,
    "RA_OF_ASC_NODE": 237.2876,
    "ARG_OF_PERICENTER": 268.778,
    "MEAN_ANOMALY": 91.294,
    "EPHEMERIS_TYPE": 0,
    "CLASSIFICATION_TYPE": "U",
    "NORAD_CAT_ID": 57891,
    "ELEMENT_SET_NO": 999,
    "REV_AT_EPOCH": 11924,
    "BSTAR": 0.0,
    "MEAN_MOTION_DOT": -1.23e-05,
    "MEAN_MOTION_DDOT": 0.0,
    "TLE_LINE1": "1 57891U 23146A   25315.22889004 -.00001230  00000+0 -75978-4 0  9992",
    "TLE_LINE2": "2 57891  43.0044 237.2876 0001069 268.7780  91.2940 15.02530145119244",
    "COMMENT": "Grouped by shell and plane from TLE"
  },
  {
    "OBJECT_NAME": "STARLINK-30470",
    "OBJECT_ID": "23146B",
    "EPOCH": "2025-11-11T03:49:04.495584",
    "MEAN_MOTION": 15.0253707,
    "ECCENTRICITY": 0.0001007,
    "INCLINATION": 43.0016,
    "RA_OF_ASC_NODE": 237.6218,
    "ARG_OF_PERICENTER": 274.5642,
    "MEAN_ANOMALY": 85.5085,
    "EPHEMERIS_TYPE": 0,
    "CLASSIFICATION_TYPE": "U",
    "NORAD_CAT_ID": 57892,
    "ELEMENT_SET_NO": 999,
    "REV_AT_EPOCH": 11923,
    "BSTAR": 0.00017046,
    "MEAN_MOTION_DOT": 2.1e-05,
    "MEAN_MOTION_DDOT": 0.0,
    "TLE_LINE1": "1 57892U 23146B   25315.15907981  .00002100  00000+0  17046-3 0  9996",
    "TLE_LINE2": "2 57892  43.0016 237.6218 0001007 274.5642  85.5085 15.02537070119231",
    "COMMENT": "Grouped by shell and plane from TLE"
  },
  {
    "OBJECT_NAME": "STARLINK-30473",
    "OBJECT_ID": "23146C",
    "EPOCH": "2025-11-11T03:15:31.625280",
    "MEAN_MOTION": 15.02467318,
    "ECCENTRICITY": 0.0001147,
    "INCLINATION": 43.0033,
    "RA_OF_ASC_NODE": 237.3965,
    "ARG_OF_PERICENTER": 263.2281,
    "MEAN_ANOMALY": 96.8431,
    "EPHEMERIS_TYPE": 0,
    "CLASSIFICATION_TYPE": "U",
    "NORAD_CAT_ID": 57893,
    "ELEMENT_SET_NO": 999,
    "REV_AT_EPOCH": 11923,
    "BSTAR": 0.0012425000000000001,
    "MEAN_MOTION_DOT": 0.0001659,
    "MEAN_MOTION_DDOT": 0.0,
    "TLE_LINE1": "1 57893U 23146C   25315.13578270  .00016590  00000+0  12425-2 0  9993",
    "TLE_LINE2": "2 57893  43.0033 237.3965 0001147 263.2281  96.8431 15.02467318119233",
    "COMMENT": "Grouped by shell and plane from TLE"
  },
  {
    "OBJECT_NAME": "STARLINK-30443",
    "OBJECT_ID": "23146D",
    "EPOCH": "2025-11-11T05:15:15.062976",
    "MEAN_MOTION": 15.02504645,
    "ECCENTRICITY": 2.13e-05,
    "INCLINATION": 43.0021,
    "RA_OF_ASC_NODE": 237.2139,
    "ARG_OF_PERICENTER": 201.4711,
    "MEAN_ANOMALY": 158.6122,
    "EPHEMERIS_TYPE": 0,
    "CLASSIFICATION_TYPE": "U",
    "NORAD_CAT_ID": 57894,
    "ELEMENT_SET_NO": 999,
    "REV_AT_EPOCH": 11924,
    "BSTAR": 4.1957000000000005e-05,
    "MEAN_MOTION_DOT": 3.63e-06,
    "MEAN_MOTION_DDOT": 0.0,
    "TLE_LINE1": "1 57894U 23146D   25315.21892434  .00000363  00000+0  41957-4 0  9999",
    "TLE_LINE2": "2 57894  43.0021 237.2139 0000213 201.4711 158.6122 15.02504645119248",
    "COMMENT": "Grouped by shell and plane from TLE"
  }
]